COSMOS 2433 (720)       
1 32275U 07052A   26203.10996669 -.00000090  00000+0  00000+0 0  9990
2 32275  65.5549 314.7579 0003748 204.3382 155.6620  2.13104093145801
COSMOS 2432 (719)       
1 32276U 07052B   26202.71222580 -.00000089  00000+0  00000+0 0  9999
2 32276  65.5711 314.9000 0007375 320.6767  37.9431  2.13103052145810
COSMOS 2434 (721)       
1 32393U 07065A   26201.60474382  .00000086  00000+0  00000+0 0  9995
2 32393  64.3202 190.7886 0001234 328.2500 206.6629  2.13101204144484
COSMOS 2436 (723)       
1 32395U 07065C   26201.38576125  .00000084  00000+0  00000+0 0  9998
2 32395  64.3289 190.8685 0017323 353.6543 145.4326  2.13100001144437
COSMOS 2456 (730)       
1 36111U 09070A   26202.30013477 -.00000053  00000+0  00000+0 0  9992
2 36111  65.0317  69.8088 0003430 344.1065 162.6207  2.13103502129157
COSMOS 2457 (733)       
1 36112U 09070B   26203.13698076 -.00000052  00000+0  00000+0 0  9998
2 36112  65.0178  69.6233 0004394 122.7671  73.0536  2.13101025129176
COSMOS 2460 (732)       
1 36402U 10007C   26202.40772837 -.00000088  00000+0  00000+0 0  9998
2 36402  65.3983 313.3083 0001852 154.3387 203.9833  2.13101549127452
COSMOS 2476 (744)       
1 37867U 11064A   26202.35733743 -.00000053  00000+0  00000+0 0  9997
2 37867  65.2896  71.7181 0022039 235.5042 223.4275  2.13103526114498
COSMOS 2477 (745)       
1 37868U 11064B   26203.63180419 -.00000050  00000+0  00000+0 0  9993
2 37868  65.2968  71.7547 0019088 236.1337 300.7696  2.13102887114517
COSMOS 2475 (743)       
1 37869U 11064C   26202.27236928 -.00000053  00000+0  00000+0 0  9993
2 37869  65.3028  71.8225 0024516 250.3630 278.6004  2.13101636114490
COSMOS 2485 (747)       
1 39155U 13019A   26201.22743888 -.00000049  00000+0  00000+0 0  9992
2 39155  65.4381  72.4960 0022557 230.6909 129.1761  2.13103050102982
COSMOS 2492 (754)       
1 39620U 14012A   26203.53259258 -.00000090  00000+0  00000+0 0  9998
2 39620  65.2744 312.7343 0010307 316.3437  43.5947  2.13103176 95999
COSMOS 2500 (755)       
1 40001U 14032A   26202.76339409 -.00000089  00000+0  00000+0 0  9994
2 40001  65.2101 312.5047 0008506 191.6060 168.3951  2.13105857 94194
COSMOS 2501 (702K)      
1 40315U 14075A   26202.55658060  .00000090  00000+0  00000+0 0  9994
2 40315  63.6189 189.1825 0022595 212.4587 147.4043  2.13101380 90588
COSMOS 2514 (751)       
1 41330U 16008A   26201.60265593 -.00000085  00000+0  00000+0 0  9995
2 41330  64.9994 311.8597 0012484 201.8566 158.1123  2.13102623 81331
COSMOS 2522 (752)       
1 42939U 17055A   26201.44027304  .00000084  00000+0  00000+0 0  9990
2 42939  64.0809 190.7524 0010884 240.6370 119.2556  2.13101801 68681
COSMOS 2527 (756)       
1 43508U 18053A   26201.40231311 -.00000049  00000+0  00000+0 0  9995
2 43508  65.5961  72.7996 0006344 227.3843 132.6293  2.13101992 62989
COSMOS 2529 (757)       
1 43687U 18086A   26201.49849141  .00000085  00000+0  00000+0 0  9993
2 43687  64.2975 191.4696 0011976 256.3144 103.5547  2.13101999 59990
COSMOS 2534 (758)       
1 44299U 19030A   26203.13389427  .00000093  00000+0  00000+0 0  9991
2 44299  64.3713 191.4397 0013437 275.2090  33.8854  2.13102306 55662
COSMOS 2544 (759)       
1 44850U 19088A   26199.93909424 -.00000038  00000+0  00000+0 0  9994
2 44850  65.5828  72.6716 0012049 253.1294 106.8089  2.13102904 51390
COSMOS 2545 (760)       
1 45358U 20018A   26201.07254601 -.00000083  00000+0  00000+0 0  9992
2 45358  64.3333 311.2627 0009901 230.0825 129.8537  2.13102411 49362
COSMOS 2547 (705K)      
1 46805U 20075A   26201.26230815  .00000083  00000+0  00000+0 0  9994
2 46805  64.6016 191.3717 0009465 239.9348 119.9732  2.13099966 44611
COSMOS 2557 (706K)      
1 52984U 22075A   26201.89567594 -.00000088  00000+0  00000+0 0  9993
2 52984  64.2766 313.2973 0010827 270.8513  89.0451  2.13102143 31438
COSMOS 2559 (707K)      
1 54031U 22130A   26202.18464193 -.00000089  00000+0  00000+0 0  9995
2 54031  64.2489 313.3698 0013171 181.7048 178.3110  2.13101788 29411
COSMOS 2564 (761)       
1 54377U 22161A   26202.96626008  .00000094  00000+0  00000+0 0  9998
2 54377  64.7442 191.5572 0012170 224.6979 135.2103  2.13102079 28375
COSMOS 2569 (703K)      
1 57517U 23114A   26202.50927394 -.00000053  00000+0  00000+0 0  9994
2 57517  65.3220  71.4633 0009465 295.3236  64.6448  2.13103851 22991
COSMOS 2584 (704K)      
1 63130U 25042A   26202.86533319 -.00000053  00000+0  00000+0 0  9993
2 63130  65.1046  71.6233 0005592 211.4404 148.5924  2.13103874 10784
COSMOS 2596 (708K)      
1 65590U 25206B   26202.71196580 -.00000090  00000+0  00000+0 0  9997
2 65590  64.6120 313.7831 0011241 307.0070  51.3277  2.13101030  6640
